{
  "type": "FeatureCollection",
  "features": [
    {
      "type": "Feature",
      "properties": {
        "norad_id": 43823,
        "name": "GEO-KOMPSAT-2A",
        "group": "weather",
        "lat": -0.039909734556222945,
        "lon": -12.733151772134363,
        "alt_km": 35787.41670351528,
        "timestamp": "2025-12-06T09:34:16.561700+00:00",
        "meta_object_name": "GEO-KOMPSAT-2A",
        "meta_object_id": "2018-100A",
        "meta_epoch": "2025-12-05T21:09:14.676768",
        "meta_mean_motion": 1.00272052,
        "meta_eccentricity": 3.465e-05,
        "meta_inclination": 0.0607,
        "meta_ra_of_asc_node": 119.8643,
        "meta_arg_of_pericenter": 71.2478,
        "meta_mean_anomaly": 329.3973,
        "meta_ephemeris_type": 0,
        "meta_classification_type": "U",
        "meta_norad_cat_id": 43823,
        "meta_element_set_no": 999,
        "meta_rev_at_epoch": 2569,
        "meta_bstar": 0,
        "meta_mean_motion_dot": -3.34e-06,
        "meta_mean_motion_ddot": 0,
        "tle_line1": "1 43823U 18100A   25339.88141987 -.00000334  00000+0  00000+0 0  9997",
        "tle_line2": "2 43823   0.0607 119.8643 0000346  71.2478 329.3973  1.00272052 25696"
      },
      "geometry": {
        "type": "Point",
        "coordinates": [
          -12.733151772134363,
          -0.039909734556222945
        ]
      }
    },
    {
      "type": "Feature",
      "properties": {
        "norad_id": 44387,
        "name": "METEOR-M2 2",
        "group": "weather",
        "lat": -76.27553342753173,
        "lon": -0.05696441942255364,
        "alt_km": 818.5532484412261,
        "timestamp": "2025-12-06T09:34:16.561711+00:00",
        "meta_object_name": "METEOR-M2 2",
        "meta_object_id": "2019-038A",
        "meta_epoch": "2025-12-05T22:08:31.705152",
        "meta_mean_motion": 14.2428702,
        "meta_eccentricity": 0.0001015,
        "meta_inclination": 98.8966,
        "meta_ra_of_asc_node": 319.5683,
        "meta_arg_of_pericenter": 161.9196,
        "meta_mean_anomaly": 198.2019,
        "meta_ephemeris_type": 0,
        "meta_classification_type": "U",
        "meta_norad_cat_id": 44387,
        "meta_element_set_no": 999,
        "meta_rev_at_epoch": 33378,
        "meta_bstar": 0.00015821584,
        "meta_mean_motion_dot": 3.19e-06,
        "meta_mean_motion_ddot": 0,
        "tle_line1": "1 44387U 19038A   25339.92258918  .00000319  00000+0  15822-3 0  9996",
        "tle_line2": "2 44387  98.8966 319.5683 0001015 161.9196 198.2019 14.24287020333783"
      },
      "geometry": {
        "type": "Point",
        "coordinates": [
          -0.05696441942255364,
          -76.27553342753173
        ]
      }
    },
    {
      "type": "Feature",
      "properties": {
        "norad_id": 47719,
        "name": "ARKTIKA-M 1",
        "group": "weather",
        "lat": 60.697131308662826,
        "lon": -159.3296723679934,
        "alt_km": 36370.48361144939,
        "timestamp": "2025-12-06T09:34:16.561731+00:00",
        "meta_object_name": "ARKTIKA-M 1",
        "meta_object_id": "2021-016A",
        "meta_epoch": "2025-12-01T02:41:41.634816",
        "meta_mean_motion": 2.00613156,
        "meta_eccentricity": 0.71974708,
        "meta_inclination": 63.1756,
        "meta_ra_of_asc_node": 85.6045,
        "meta_arg_of_pericenter": 269.084,
        "meta_mean_anomaly": 15.7076,
        "meta_ephemeris_type": 0,
        "meta_classification_type": "U",
        "meta_norad_cat_id": 47719,
        "meta_element_set_no": 999,
        "meta_rev_at_epoch": 3481,
        "meta_bstar": 0,
        "meta_mean_motion_dot": -1.2e-07,
        "meta_mean_motion_ddot": 0,
        "tle_line1": "1 47719U 21016A   25335.11228744 -.00000012  00000+0  00000+0 0  9997",
        "tle_line2": "2 47719  63.1756  85.6045 7197470 269.0840  15.7076  2.00613156 34816"
      },
      "geometry": {
        "type": "Point",
        "coordinates": [
          -159.3296723679934,
          60.697131308662826
        ]
      }
    },
    {
      "type": "Feature",
      "properties": {
        "norad_id": 49008,
        "name": "FENGYUN 3E",
        "group": "weather",
        "lat": -19.460032926595275,
        "lon": -15.886251830273283,
        "alt_km": 830.4292463732918,
        "timestamp": "2025-12-06T09:34:16.561746+00:00",
        "meta_object_name": "FENGYUN 3E",
        "meta_object_id": "2021-062A",
        "meta_epoch": "2025-12-05T23:30:59.017536",
        "meta_mean_motion": 14.19878671,
        "meta_eccentricity": 6.548e-05,
        "meta_inclination": 98.7476,
        "meta_ra_of_asc_node": 340.5812,
        "meta_arg_of_pericenter": 309.874,
        "meta_mean_anomaly": 50.2379,
        "meta_ephemeris_type": 0,
        "meta_classification_type": "U",
        "meta_norad_cat_id": 49008,
        "meta_element_set_no": 999,
        "meta_rev_at_epoch": 22916,
        "meta_bstar": 5.632318e-05,
        "meta_mean_motion_dot": 7.6e-07,
        "meta_mean_motion_ddot": 0,
        "tle_line1": "1 49008U 21062A   25339.97984974  .00000076  00000+0  56323-4 0  9996",
        "tle_line2": "2 49008  98.7476 340.5812 0000654 309.8740  50.2379 14.19878671229161"
      },
      "geometry": {
        "type": "Point",
        "coordinates": [
          -15.886251830273283,
          -19.460032926595275
        ]
      }
    },
    {
      "type": "Feature",
      "properties": {
        "norad_id": 51850,
        "name": "GOES 18",
        "group": "weather",
        "lat": -0.009061768142081508,
        "lon": 81.9897164248252,
        "alt_km": 35789.66520690538,
        "timestamp": "2025-12-06T09:34:16.561759+00:00",
        "meta_object_name": "GOES 18",
        "meta_object_id": "2022-021A",
        "meta_epoch": "2025-12-05T18:10:55.214400",
        "meta_mean_motion": 1.00268817,
        "meta_eccentricity": 7.332e-05,
        "meta_inclination": 0.0076,
        "meta_ra_of_asc_node": 206.1196,
        "meta_arg_of_pericenter": 80.8491,
        "meta_mean_anomaly": 283.5654,
        "meta_ephemeris_type": 0,
        "meta_classification_type": "U",
        "meta_norad_cat_id": 51850,
        "meta_element_set_no": 999,
        "meta_rev_at_epoch": 465,
        "meta_bstar": 0,
        "meta_mean_motion_dot": 1.07e-06,
        "meta_mean_motion_ddot": 0,
        "tle_line1": "1 51850U 22021A   25339.75758350  .00000107  00000+0  00000+0 0  9994",
        "tle_line2": "2 51850   0.0076 206.1196 0000733  80.8491 283.5654  1.00268817  4653"
      },
      "geometry": {
        "type": "Point",
        "coordinates": [
          81.9897164248252,
          -0.009061768142081508
        ]
      }
    },
    {
      "type": "Feature",
      "properties": {
        "norad_id": 54234,
        "name": "NOAA 21 (JPSS-2)",
        "group": "weather",
        "lat": -5.13709129656441,
        "lon": -82.4207125130971,
        "alt_km": 829.5029325222185,
        "timestamp": "2025-12-06T09:34:16.561770+00:00",
        "meta_object_name": "NOAA 21 (JPSS-2)",
        "meta_object_id": "2022-150A",
        "meta_epoch": "2025-12-05T21:45:14.565312",
        "meta_mean_motion": 14.19521201,
        "meta_eccentricity": 0.00024533,
        "meta_inclination": 98.7452,
        "meta_ra_of_asc_node": 276.3003,
        "meta_arg_of_pericenter": 50.8337,
        "meta_mean_anomaly": 309.3057,
        "meta_ephemeris_type": 0,
        "meta_classification_type": "U",
        "meta_norad_cat_id": 54234,
        "meta_element_set_no": 999,
        "meta_rev_at_epoch": 15912,
        "meta_bstar": 0.00011347824,
        "meta_mean_motion_dot": 1.95e-06,
        "meta_mean_motion_ddot": 0,
        "tle_line1": "1 54234U 22150A   25339.90641858  .00000195  00000+0  11348-3 0  9995",
        "tle_line2": "2 54234  98.7452 276.3003 0002453  50.8337 309.3057 14.19521201159127"
      },
      "geometry": {
        "type": "Point",
        "coordinates": [
          -82.4207125130971,
          -5.13709129656441
        ]
      }
    },
    {
      "type": "Feature",
      "properties": {
        "norad_id": 54743,
        "name": "METEOSAT-12 (MTG-I1)",
        "group": "weather",
        "lat": -0.12623707426088182,
        "lon": -141.27178307755824,
        "alt_km": 35779.823074275686,
        "timestamp": "2025-12-06T09:34:16.561781+00:00",
        "meta_object_name": "METEOSAT-12 (MTG-I1)",
        "meta_object_id": "2022-170C",
        "meta_epoch": "2025-12-05T22:15:22.574304",
        "meta_mean_motion": 1.00274183,
        "meta_eccentricity": 0.00015546,
        "meta_inclination": 0.7216,
        "meta_ra_of_asc_node": 30.491,
        "meta_arg_of_pericenter": 220.2018,
        "meta_mean_anomaly": 157.8632,
        "meta_ephemeris_type": 0,
        "meta_classification_type": "U",
        "meta_norad_cat_id": 54743,
        "meta_element_set_no": 999,
        "meta_rev_at_epoch": 1104,
        "meta_bstar": 0,
        "meta_mean_motion_dot": 2e-08,
        "meta_mean_motion_ddot": 0,
        "tle_line1": "1 54743U 22170C   25339.92734461  .00000002  00000+0  00000+0 0  9993",
        "tle_line2": "2 54743   0.7216  30.4910 0001554 220.2018 157.8632  1.00274183 11042"
      },
      "geometry": {
        "type": "Point",
        "coordinates": [
          -141.27178307755824,
          -0.12623707426088182
        ]
      }
    }
  ]
}